MALLIGYONG-1            
1 58400U 23179A   24064.57607545  .00006833  00000+0  30852-3 0  9994
2 58400  97.4187 312.9852 0007790 269.3019  90.7324 15.21275752 15815
